{"fetched_at":"2026-07-11T06:35:31.333Z","source":"https://celestrak.org/NORAD/elements/gp.php?NAME=ICEYE&FORMAT=JSON","constellation":"iceye","records":[{"OBJECT_NAME":"ICEYE-X40","OBJECT_ID":"2024-149CK","EPOCH":"2026-07-10T03:32:20.178528","CLASSIFICATION_TYPE":"U","MEAN_MOTION":14.98045385,"ECCENTRICITY":0.00045272,"INCLINATION":97.6804,"RA_OF_ASC_NODE":267.2722,"ARG_OF_PERICENTER":14.3436,"MEAN_ANOMALY":345.7914,"EPHEMERIS_TYPE":0,"NORAD_CAT_ID":60549,"ELEMENT_SET_NO":999,"REV_AT_EPOCH":10351,"BSTAR":0.00011805953,"MEAN_MOTION_DOT":0.00001337,"MEAN_MOTION_DDOT":0},{"OBJECT_NAME":"ICEYE-X49","OBJECT_ID":"2024-247H","EPOCH":"2026-07-10T14:27:33.865056","CLASSIFICATION_TYPE":"U","MEAN_MOTION":15.13600626,"ECCENTRICITY":0.000131,"INCLINATION":44.9969,"RA_OF_ASC_NODE":232.3284,"ARG_OF_PERICENTER":239.1524,"MEAN_ANOMALY":120.9224,"EPHEMERIS_TYPE":0,"NORAD_CAT_ID":62384,"ELEMENT_SET_NO":999,"REV_AT_EPOCH":8572,"BSTAR":0.0001422,"MEAN_MOTION_DOT":0.00002339,"MEAN_MOTION_DDOT":0},{"OBJECT_NAME":"ICEYE-X47","OBJECT_ID":"2024-247N","EPOCH":"2026-07-10T05:57:11.976192","CLASSIFICATION_TYPE":"U","MEAN_MOTION":15.13473764,"ECCENTRICITY":0.00018963,"INCLINATION":44.995,"RA_OF_ASC_NODE":233.8127,"ARG_OF_PERICENTER":323.2378,"MEAN_ANOMALY":36.8369,"EPHEMERIS_TYPE":0,"NORAD_CAT_ID":62389,"ELEMENT_SET_NO":999,"REV_AT_EPOCH":8567,"BSTAR":0.00012215385,"MEAN_MOTION_DOT":0.00001965,"MEAN_MOTION_DDOT":0},{"OBJECT_NAME":"ICEYE-X42","OBJECT_ID":"2025-009CT","EPOCH":"2026-07-09T22:40:08.504832","CLASSIFICATION_TYPE":"U","MEAN_MOTION":14.91841595,"ECCENTRICITY":0.00015807,"INCLINATION":97.7369,"RA_OF_ASC_NODE":268.8517,"ARG_OF_PERICENTER":78.4032,"MEAN_ANOMALY":281.7365,"EPHEMERIS_TYPE":0,"NORAD_CAT_ID":62698,"ELEMENT_SET_NO":999,"REV_AT_EPOCH":8068,"BSTAR":0.00011850349,"MEAN_MOTION_DOT":0.00001141,"MEAN_MOTION_DDOT":0},{"OBJECT_NAME":"ICEYE-X41","OBJECT_ID":"2025-009CV","EPOCH":"2026-07-10T12:49:31.536192","CLASSIFICATION_TYPE":"U","MEAN_MOTION":14.96898461,"ECCENTRICITY":0.0000659,"INCLINATION":97.7064,"RA_OF_ASC_NODE":270.7222,"ARG_OF_PERICENTER":351.5003,"MEAN_ANOMALY":8.6207,"EPHEMERIS_TYPE":0,"NORAD_CAT_ID":62700,"ELEMENT_SET_NO":999,"REV_AT_EPOCH":8090,"BSTAR":0.00012593,"MEAN_MOTION_DOT":0.00001388,"MEAN_MOTION_DDOT":0},{"OBJECT_NAME":"ICEYE-X45","OBJECT_ID":"2025-009DA","EPOCH":"2026-07-09T04:44:28.325184","CLASSIFICATION_TYPE":"U","MEAN_MOTION":15.00834679,"ECCENTRICITY":0.00013474,"INCLINATION":97.8389,"RA_OF_ASC_NODE":277.063,"ARG_OF_PERICENTER":83.0695,"MEAN_ANOMALY":277.0682,"EPHEMERIS_TYPE":0,"NORAD_CAT_ID":62705,"ELEMENT_SET_NO":999,"REV_AT_EPOCH":8098,"BSTAR":0.00035107789,"MEAN_MOTION_DOT":0.00004401,"MEAN_MOTION_DDOT":0},{"OBJECT_NAME":"ICEYE-X44","OBJECT_ID":"2025-009DC","EPOCH":"2026-07-08T18:07:53.111712","CLASSIFICATION_TYPE":"U","MEAN_MOTION":14.9614086,"ECCENTRICITY":0.00025143,"INCLINATION":97.7046,"RA_OF_ASC_NODE":268.5409,"ARG_OF_PERICENTER":83.8125,"MEAN_ANOMALY":276.3383,"EPHEMERIS_TYPE":0,"NORAD_CAT_ID":62707,"ELEMENT_SET_NO":999,"REV_AT_EPOCH":10316,"BSTAR":0.00018848943,"MEAN_MOTION_DOT":0.00002064,"MEAN_MOTION_DDOT":0},{"OBJECT_NAME":"ICEYE-X48","OBJECT_ID":"2025-052AV","EPOCH":"2026-07-08T16:45:21.503520","CLASSIFICATION_TYPE":"U","MEAN_MOTION":14.98103104,"ECCENTRICITY":0.00032705,"INCLINATION":97.6841,"RA_OF_ASC_NODE":81.5559,"ARG_OF_PERICENTER":119.78,"MEAN_ANOMALY":240.3748,"EPHEMERIS_TYPE":0,"NORAD_CAT_ID":63253,"ELEMENT_SET_NO":999,"REV_AT_EPOCH":7189,"BSTAR":0.00015555836,"MEAN_MOTION_DOT":0.00001783,"MEAN_MOTION_DDOT":0},{"OBJECT_NAME":"ICEYE-X50","OBJECT_ID":"2025-052AX","EPOCH":"2026-07-10T20:18:53.298144","CLASSIFICATION_TYPE":"U","MEAN_MOTION":14.95355258,"ECCENTRICITY":0.0003337,"INCLINATION":97.6865,"RA_OF_ASC_NODE":83.2849,"ARG_OF_PERICENTER":111.1594,"MEAN_ANOMALY":248.9984,"EPHEMERIS_TYPE":0,"NORAD_CAT_ID":63255,"ELEMENT_SET_NO":999,"REV_AT_EPOCH":7218,"BSTAR":0.00012983,"MEAN_MOTION_DOT":0.00001376,"MEAN_MOTION_DDOT":0},{"OBJECT_NAME":"ICEYE-X51","OBJECT_ID":"2025-052AZ","EPOCH":"2026-07-10T17:24:29.234304","CLASSIFICATION_TYPE":"U","MEAN_MOTION":15.00888152,"ECCENTRICITY":0.0002037,"INCLINATION":97.7604,"RA_OF_ASC_NODE":86.7774,"ARG_OF_PERICENTER":68.087,"MEAN_ANOMALY":292.057,"EPHEMERIS_TYPE":0,"NORAD_CAT_ID":63257,"ELEMENT_SET_NO":999,"REV_AT_EPOCH":7233,"BSTAR":0.00021117,"MEAN_MOTION_DOT":0.00002627,"MEAN_MOTION_DDOT":0},{"OBJECT_NAME":"ICEYE-X46","OBJECT_ID":"2025-052BA","EPOCH":"2026-07-10T04:10:35.798880","CLASSIFICATION_TYPE":"U","MEAN_MOTION":14.9535396,"ECCENTRICITY":0.0001648,"INCLINATION":97.6866,"RA_OF_ASC_NODE":82.6243,"ARG_OF_PERICENTER":85.4311,"MEAN_ANOMALY":274.7099,"EPHEMERIS_TYPE":0,"NORAD_CAT_ID":63258,"ELEMENT_SET_NO":999,"REV_AT_EPOCH":7208,"BSTAR":0.00014759244,"MEAN_MOTION_DOT":0.00001572,"MEAN_MOTION_DDOT":0},{"OBJECT_NAME":"ICEYE-X54","OBJECT_ID":"2025-135AU","EPOCH":"2026-07-10T20:35:21.981120","CLASSIFICATION_TYPE":"U","MEAN_MOTION":14.94716095,"ECCENTRICITY":0.0001737,"INCLINATION":97.7742,"RA_OF_ASC_NODE":306.0539,"ARG_OF_PERICENTER":197.0173,"MEAN_ANOMALY":163.0989,"EPHEMERIS_TYPE":0,"NORAD_CAT_ID":64570,"ELEMENT_SET_NO":999,"REV_AT_EPOCH":5743,"BSTAR":0.0001832,"MEAN_MOTION_DOT":0.00001931,"MEAN_MOTION_DDOT":0},{"OBJECT_NAME":"ICEYE-X52","OBJECT_ID":"2025-135AW","EPOCH":"2026-07-10T20:27:46.929600","CLASSIFICATION_TYPE":"U","MEAN_MOTION":14.93642027,"ECCENTRICITY":0.0000892,"INCLINATION":97.7765,"RA_OF_ASC_NODE":305.844,"ARG_OF_PERICENTER":206.6522,"MEAN_ANOMALY":153.4652,"EPHEMERIS_TYPE":0,"NORAD_CAT_ID":64572,"ELEMENT_SET_NO":999,"REV_AT_EPOCH":5741,"BSTAR":0.00011754,"MEAN_MOTION_DOT":0.00001185,"MEAN_MOTION_DDOT":0},{"OBJECT_NAME":"ICEYE-X56","OBJECT_ID":"2025-135AY","EPOCH":"2026-07-10T20:21:33.190848","CLASSIFICATION_TYPE":"U","MEAN_MOTION":14.95744933,"ECCENTRICITY":0.000112,"INCLINATION":97.7755,"RA_OF_ASC_NODE":306.6244,"ARG_OF_PERICENTER":217.8703,"MEAN_ANOMALY":142.2439,"EPHEMERIS_TYPE":0,"NORAD_CAT_ID":64574,"ELEMENT_SET_NO":999,"REV_AT_EPOCH":5746,"BSTAR":0.00016572,"MEAN_MOTION_DOT":0.00001789,"MEAN_MOTION_DDOT":0},{"OBJECT_NAME":"ICEYE-X57","OBJECT_ID":"2025-135BC","EPOCH":"2026-07-10T19:13:34.124160","CLASSIFICATION_TYPE":"U","MEAN_MOTION":15.00860976,"ECCENTRICITY":0.0002123,"INCLINATION":97.8007,"RA_OF_ASC_NODE":308.3396,"ARG_OF_PERICENTER":60.4806,"MEAN_ANOMALY":299.6629,"EPHEMERIS_TYPE":0,"NORAD_CAT_ID":64578,"ELEMENT_SET_NO":999,"REV_AT_EPOCH":5756,"BSTAR":0.00022626,"MEAN_MOTION_DOT":0.00002816,"MEAN_MOTION_DDOT":0},{"OBJECT_NAME":"ICEYE-X55","OBJECT_ID":"2025-135BF","EPOCH":"2026-07-10T20:30:37.540224","CLASSIFICATION_TYPE":"U","MEAN_MOTION":14.95344276,"ECCENTRICITY":0.0001813,"INCLINATION":97.7755,"RA_OF_ASC_NODE":306.4589,"ARG_OF_PERICENTER":257.5147,"MEAN_ANOMALY":102.5871,"EPHEMERIS_TYPE":0,"NORAD_CAT_ID":64581,"ELEMENT_SET_NO":999,"REV_AT_EPOCH":5745,"BSTAR":0.00018246,"MEAN_MOTION_DOT":0.00001955,"MEAN_MOTION_DDOT":0}]}
